STARLINK-34677          
1 65031U 25161S   25320.74371664  .00042194  00000+0  14272-2 0  9997
2 65031  53.1585  99.0861 0002547  83.2523 276.8767 15.30232534 16938
STARLINK-34656          
1 65032U 25161T   25319.89249902  .00033725  00000+0  11466-2 0  9993
2 65032  53.1556 103.0166 0001190  85.7258 274.3879 15.30173700 17900
STARLINK-34671          
1 65033U 25161U   25321.07661123  .00058624  00000+0  19752-2 0  9991
2 65033  53.1578  97.6084 0000666 247.5935 112.4996 15.30211189 16982
STARLINK-34610          
1 65034U 25161V   25321.11977495  .00052823  00000+0  17826-2 0  9994
2 65034  53.1565  97.1647 0002199  86.5807 273.5445 15.30205115 16992
STARLINK-34286          
1 65035U 25161W   25321.11133276  .00044682  00000+0  15116-2 0  9990
2 65035  53.1584  97.1124 0002080  80.8673 279.2563 15.30199838 16999
STARLINK-34770          
1 65036U 25161X   25320.93438000  .00045357  00000+0  15337-2 0  9998
2 65036  53.1561  98.1406 0000914  94.2979 265.8126 15.30211198 16968
STARLINK-34776          
1 65037U 25161Y   25320.79952482  .00064911  00000+0  21791-2 0  9996
2 65037  53.1596  98.7235 0000712 263.8356  96.2564 15.30283235 16943
STARLINK-34827          
1 65038U 25161Z   25321.27983505  .00053281  00000+0  17977-2 0  9990
2 65038  53.1565  96.0292 0001448  78.9276 281.1888 15.30208595 17027
STARLINK-34721          
1 65039U 25161AA  25321.08178387  .00029904  00000+0  10174-2 0  9991
2 65039  53.1573  96.9232 0002804  81.0478 279.0841 15.30208989 16993
STARLINK-34819          
1 65040U 25161AB  25321.07978229  .00060937  00000+0  20514-2 0  9995
2 65040  53.1554  97.6231 0000803  49.0152 311.0918 15.30221634 16984
STARLINK-34820          
1 65041U 25161AC  25320.77630488  .00045196  00000+0  15281-2 0  9999
2 65041  53.1581  98.5750 0000914 254.8746 105.2154 15.30216183 16943
STARLINK-34824          
1 65042U 25161AD  25320.76786906  .00043356  00000+0  14666-2 0  9998
2 65042  53.1566  98.5230 0000724  94.2032 265.9051 15.30218629 16940
STARLINK-34771          
1 65078U 25167A   25319.94493389  .00048721  00000+0  12217-2 0  9992
2 65078  53.1592 193.7221 0001934  95.4507 264.6719 15.39581922 16080
STARLINK-34634          
1 65079U 25167B   25320.92793092  .00052583  00000+0  13155-2 0  9990
2 65079  53.1592 189.1927 0001269  87.0237 273.0913 15.39619343 16237
STARLINK-34267          
1 65080U 25167C   25321.36375887  .00069401  00000+0  17297-2 0  9997
2 65080  53.1585 186.9349 0001000 108.9955 251.1158 15.39612326 17522
STARLINK-34561          
1 65081U 25167D   25321.36840589  .00080384  00000+0  19973-2 0  9990
2 65081  53.1577 186.9630 0001811  81.1165 279.0045 15.39637589 17557
