[{"OBJECT_NAME":"STARLINK-34677","OBJECT_ID":"2025-161S","EPOCH":"2025-11-16T17:50:57.117696","MEAN_MOTION":15.30232534,"ECCENTRICITY":0.00025475,"INCLINATION":53.1585,"RA_OF_ASC_NODE":99.0861,"ARG_OF_PERICENTER":83.2523,"MEAN_ANOMALY":276.8767,"EPHEMERIS_TYPE":0,"CLASSIFICATION_TYPE":"U","NORAD_CAT_ID":65031,"ELEMENT_SET_NO":999,"REV_AT_EPOCH":1693,"BSTAR":0.0014271603,"MEAN_MOTION_DOT":0.00042194,"MEAN_MOTION_DDOT":0},{"OBJECT_NAME":"STARLINK-34656","OBJECT_ID":"2025-161T","EPOCH":"2025-11-15T21:25:11.915328","MEAN_MOTION":15.301737,"ECCENTRICITY":0.00011901,"INCLINATION":53.1556,"RA_OF_ASC_NODE":103.0166,"ARG_OF_PERICENTER":85.7258,"MEAN_ANOMALY":274.3879,"EPHEMERIS_TYPE":0,"CLASSIFICATION_TYPE":"U","NORAD_CAT_ID":65032,"ELEMENT_SET_NO":999,"REV_AT_EPOCH":1790,"BSTAR":0.0011465524,"MEAN_MOTION_DOT":0.00033725,"MEAN_MOTION_DDOT":0},{"OBJECT_NAME":"STARLINK-34671","OBJECT_ID":"2025-161U","EPOCH":"2025-11-17T01:50:19.210272","MEAN_MOTION":15.30211189,"ECCENTRICITY":6.664e-5,"INCLINATION":53.1578,"RA_OF_ASC_NODE":97.6084,"ARG_OF_PERICENTER":247.5935,"MEAN_ANOMALY":112.4996,"EPHEMERIS_TYPE":0,"CLASSIFICATION_TYPE":"U","NORAD_CAT_ID":65033,"ELEMENT_SET_NO":999,"REV_AT_EPOCH":1698,"BSTAR":0.0019752156,"MEAN_MOTION_DOT":0.00058624,"MEAN_MOTION_DDOT":0},{"OBJECT_NAME":"STARLINK-34610","OBJECT_ID":"2025-161V","EPOCH":"2025-11-17T02:52:28.555680","MEAN_MOTION":15.30205115,"ECCENTRICITY":0.00021995,"INCLINATION":53.1565,"RA_OF_ASC_NODE":97.1647,"ARG_OF_PERICENTER":86.5807,"MEAN_ANOMALY":273.5445,"EPHEMERIS_TYPE":0,"CLASSIFICATION_TYPE":"U","NORAD_CAT_ID":65034,"ELEMENT_SET_NO":999,"REV_AT_EPOCH":1699,"BSTAR":0.0017826295,"MEAN_MOTION_DOT":0.00052823,"MEAN_MOTION_DDOT":0},{"OBJECT_NAME":"STARLINK-34286","OBJECT_ID":"2025-161W","EPOCH":"2025-11-17T02:40:19.150464","MEAN_MOTION":15.30199838,"ECCENTRICITY":0.00020807,"INCLINATION":53.1584,"RA_OF_ASC_NODE":97.1124,"ARG_OF_PERICENTER":80.8673,"MEAN_ANOMALY":279.2563,"EPHEMERIS_TYPE":0,"CLASSIFICATION_TYPE":"U","NORAD_CAT_ID":65035,"ELEMENT_SET_NO":999,"REV_AT_EPOCH":1699,"BSTAR":0.001511646,"MEAN_MOTION_DOT":0.00044682,"MEAN_MOTION_DDOT":0},{"OBJECT_NAME":"STARLINK-34770","OBJECT_ID":"2025-161X","EPOCH":"2025-11-16T22:25:30.432000","MEAN_MOTION":15.30211198,"ECCENTRICITY":9.141e-5,"INCLINATION":53.1561,"RA_OF_ASC_NODE":98.1406,"ARG_OF_PERICENTER":94.2979,"MEAN_ANOMALY":265.8126,"EPHEMERIS_TYPE":0,"CLASSIFICATION_TYPE":"U","NORAD_CAT_ID":65036,"ELEMENT_SET_NO":999,"REV_AT_EPOCH":1696,"BSTAR":0.0015336803,"MEAN_MOTION_DOT":0.00045357,"MEAN_MOTION_DDOT":0},{"OBJECT_NAME":"STARLINK-34776","OBJECT_ID":"2025-161Y","EPOCH":"2025-11-16T19:11:18.944448","MEAN_MOTION":15.30283235,"ECCENTRICITY":7.128e-5,"INCLINATION":53.1596,"RA_OF_ASC_NODE":98.7235,"ARG_OF_PERICENTER":263.8356,"MEAN_ANOMALY":96.2564,"EPHEMERIS_TYPE":0,"CLASSIFICATION_TYPE":"U","NORAD_CAT_ID":65037,"ELEMENT_SET_NO":999,"REV_AT_EPOCH":1694,"BSTAR":0.0021790735,"MEAN_MOTION_DOT":0.00064911,"MEAN_MOTION_DDOT":0},{"OBJECT_NAME":"STARLINK-34827","OBJECT_ID":"2025-161Z","EPOCH":"2025-11-17T06:42:57.748320","MEAN_MOTION":15.30208595,"ECCENTRICITY":0.00014489,"INCLINATION":53.1565,"RA_OF_ASC_NODE":96.0292,"ARG_OF_PERICENTER":78.9276,"MEAN_ANOMALY":281.1888,"EPHEMERIS_TYPE":0,"CLASSIFICATION_TYPE":"U","NORAD_CAT_ID":65038,"ELEMENT_SET_NO":999,"REV_AT_EPOCH":1702,"BSTAR":0.0017977081,"MEAN_MOTION_DOT":0.00053281,"MEAN_MOTION_DDOT":0},{"OBJECT_NAME":"STARLINK-34721","OBJECT_ID":"2025-161AA","EPOCH":"2025-11-17T01:57:46.126368","MEAN_MOTION":15.30208989,"ECCENTRICITY":0.00028045,"INCLINATION":53.1573,"RA_OF_ASC_NODE":96.9232,"ARG_OF_PERICENTER":81.0478,"MEAN_ANOMALY":279.0841,"EPHEMERIS_TYPE":0,"CLASSIFICATION_TYPE":"U","NORAD_CAT_ID":65039,"ELEMENT_SET_NO":999,"REV_AT_EPOCH":1699,"BSTAR":0.0010173664,"MEAN_MOTION_DOT":0.00029904,"MEAN_MOTION_DDOT":0},{"OBJECT_NAME":"STARLINK-34819","OBJECT_ID":"2025-161AB","EPOCH":"2025-11-17T01:54:53.189856","MEAN_MOTION":15.30221634,"ECCENTRICITY":8.03e-5,"INCLINATION":53.1554,"RA_OF_ASC_NODE":97.6231,"ARG_OF_PERICENTER":49.0152,"MEAN_ANOMALY":311.0918,"EPHEMERIS_TYPE":0,"CLASSIFICATION_TYPE":"U","NORAD_CAT_ID":65040,"ELEMENT_SET_NO":999,"REV_AT_EPOCH":1698,"BSTAR":0.0020513891,"MEAN_MOTION_DOT":0.00060937,"MEAN_MOTION_DDOT":0},{"OBJECT_NAME":"STARLINK-34820","OBJECT_ID":"2025-161AC","EPOCH":"2025-11-16T18:37:52.741632","MEAN_MOTION":15.30216183,"ECCENTRICITY":9.142e-5,"INCLINATION":53.1581,"RA_OF_ASC_NODE":98.575,"ARG_OF_PERICENTER":254.8746,"MEAN_ANOMALY":105.2154,"EPHEMERIS_TYPE":0,"CLASSIFICATION_TYPE":"U","NORAD_CAT_ID":65041,"ELEMENT_SET_NO":999,"REV_AT_EPOCH":1694,"BSTAR":0.0015280674,"MEAN_MOTION_DOT":0.00045196,"MEAN_MOTION_DDOT":0},{"OBJECT_NAME":"STARLINK-34824","OBJECT_ID":"2025-161AD","EPOCH":"2025-11-16T18:25:43.886784","MEAN_MOTION":15.30218629,"ECCENTRICITY":7.241e-5,"INCLINATION":53.1566,"RA_OF_ASC_NODE":98.523,"ARG_OF_PERICENTER":94.2032,"MEAN_ANOMALY":265.9051,"EPHEMERIS_TYPE":0,"CLASSIFICATION_TYPE":"U","NORAD_CAT_ID":65042,"ELEMENT_SET_NO":999,"REV_AT_EPOCH":1694,"BSTAR":0.0014666032,"MEAN_MOTION_DOT":0.00043356,"MEAN_MOTION_DDOT":0},{"OBJECT_NAME":"STARLINK-34771","OBJECT_ID":"2025-167A","EPOCH":"2025-11-15T22:40:42.288096","MEAN_MOTION":15.39581922,"ECCENTRICITY":0.00019344,"INCLINATION":53.1592,"RA_OF_ASC_NODE":193.7221,"ARG_OF_PERICENTER":95.4507,"MEAN_ANOMALY":264.6719,"EPHEMERIS_TYPE":0,"CLASSIFICATION_TYPE":"U","NORAD_CAT_ID":65078,"ELEMENT_SET_NO":999,"REV_AT_EPOCH":1608,"BSTAR":0.0012217413,"MEAN_MOTION_DOT":0.00048721,"MEAN_MOTION_DDOT":0},{"OBJECT_NAME":"STARLINK-34634","OBJECT_ID":"2025-167B","EPOCH":"2025-11-16T22:16:13.231488","MEAN_MOTION":15.39619343,"ECCENTRICITY":0.00012696,"INCLINATION":53.1592,"RA_OF_ASC_NODE":189.1927,"ARG_OF_PERICENTER":87.0237,"MEAN_ANOMALY":273.0913,"EPHEMERIS_TYPE":0,"CLASSIFICATION_TYPE":"U","NORAD_CAT_ID":65079,"ELEMENT_SET_NO":999,"REV_AT_EPOCH":1623,"BSTAR":0.0013155277,"MEAN_MOTION_DOT":0.00052583,"MEAN_MOTION_DDOT":0},{"OBJECT_NAME":"STARLINK-34267","OBJECT_ID":"2025-167C","EPOCH":"2025-11-17T08:43:48.766368","MEAN_MOTION":15.39612326,"ECCENTRICITY":0.0001,"INCLINATION":53.1585,"RA_OF_ASC_NODE":186.9349,"ARG_OF_PERICENTER":108.9955,"MEAN_ANOMALY":251.1158,"EPHEMERIS_TYPE":0,"CLASSIFICATION_TYPE":"U","NORAD_CAT_ID":65080,"ELEMENT_SET_NO":999,"REV_AT_EPOCH":1752,"BSTAR":0.0017297,"MEAN_MOTION_DOT":0.00069401,"MEAN_MOTION_DDOT":0},{"OBJECT_NAME":"STARLINK-34561","OBJECT_ID":"2025-167D","EPOCH":"2025-11-17T08:50:30.268896","MEAN_MOTION":15.39637589,"ECCENTRICITY":0.0001811,"INCLINATION":53.1577,"RA_OF_ASC_NODE":186.963,"ARG_OF_PERICENTER":81.1165,"MEAN_ANOMALY":279.0045,"EPHEMERIS_TYPE":0,"CLASSIFICATION_TYPE":"U","NORAD_CAT_ID":65081,"ELEMENT_SET_NO":999,"REV_AT_EPOCH":1755,"BSTAR":0.0019973,"MEAN_MOTION_DOT":0.00080384,"MEAN_MOTION_DDOT":0}]
